<?xml version="1.0" encoding="UTF-8" ?>
<gpx version="1.1" xmlns:xsi="http://www.w3.org/2001/XMLSchema-instance"
    xmlns="http://www.topografix.com/GPX/1/1"
    xsi:schemaLocation="http://www.topografix.com/GPX/1/1 http://www.topografix.com/GPX/1/1/gpx.xsd"
    creator="Openrunner - https://www.openrunner.com" >	<trk>
	                   <name>[24h Vélo de LLN] - Circuit Course-10579479</name>
						<trkseg>
					<trkpt lat="50.666090" lon="4.618520">
						<ele>140</ele>
						<time>2026-04-23T07:54:02Z</time>
					</trkpt>
					<trkpt lat="50.666050" lon="4.618540">
						<ele>140</ele>
						<time>2026-04-23T07:54:03Z</time>
					</trkpt>
					<trkpt lat="50.665350" lon="4.619050">
						<ele>142</ele>
						<time>2026-04-23T07:54:21Z</time>
					</trkpt>
					<trkpt lat="50.664980" lon="4.618250">
						<ele>141</ele>
						<time>2026-04-23T07:54:36Z</time>
					</trkpt>
					<trkpt lat="50.664770" lon="4.618070">
						<ele>140</ele>
						<time>2026-04-23T07:54:41Z</time>
					</trkpt>
					<trkpt lat="50.664830" lon="4.617930">
						<ele>140</ele>
						<time>2026-04-23T07:54:44Z</time>
					</trkpt>
					<trkpt lat="50.664910" lon="4.617840">
						<ele>140</ele>
						<time>2026-04-23T07:54:46Z</time>
					</trkpt>
					<trkpt lat="50.665590" lon="4.617060">
						<ele>137</ele>
						<time>2026-04-23T07:55:06Z</time>
					</trkpt>
					<trkpt lat="50.665300" lon="4.616310">
						<ele>135</ele>
						<time>2026-04-23T07:55:19Z</time>
					</trkpt>
					<trkpt lat="50.665150" lon="4.615810">
						<ele>136</ele>
						<time>2026-04-23T07:55:27Z</time>
					</trkpt>
					<trkpt lat="50.665060" lon="4.615680">
						<ele>136</ele>
						<time>2026-04-23T07:55:30Z</time>
					</trkpt>
					<trkpt lat="50.665210" lon="4.615280">
						<ele>133</ele>
						<time>2026-04-23T07:55:37Z</time>
					</trkpt>
					<trkpt lat="50.665360" lon="4.615130">
						<ele>131</ele>
						<time>2026-04-23T07:55:41Z</time>
					</trkpt>
					<trkpt lat="50.665570" lon="4.614970">
						<ele>129</ele>
						<time>2026-04-23T07:55:46Z</time>
					</trkpt>
					<trkpt lat="50.665510" lon="4.614730">
						<ele>127</ele>
						<time>2026-04-23T07:55:50Z</time>
					</trkpt>
					<trkpt lat="50.665400" lon="4.614590">
						<ele>126</ele>
						<time>2026-04-23T07:55:53Z</time>
					</trkpt>
					<trkpt lat="50.665260" lon="4.614600">
						<ele>128</ele>
						<time>2026-04-23T07:55:57Z</time>
					</trkpt>
					<trkpt lat="50.665160" lon="4.614540">
						<ele>128</ele>
						<time>2026-04-23T07:55:59Z</time>
					</trkpt>
					<trkpt lat="50.664970" lon="4.613880">
						<ele>126</ele>
						<time>2026-04-23T07:56:10Z</time>
					</trkpt>
					<trkpt lat="50.664870" lon="4.613510">
						<ele>127</ele>
						<time>2026-04-23T07:56:16Z</time>
					</trkpt>
					<trkpt lat="50.664860" lon="4.612720">
						<ele>128</ele>
						<time>2026-04-23T07:56:27Z</time>
					</trkpt>
					<trkpt lat="50.664860" lon="4.612270">
						<ele>128</ele>
						<time>2026-04-23T07:56:34Z</time>
					</trkpt>
					<trkpt lat="50.664860" lon="4.611760">
						<ele>128</ele>
						<time>2026-04-23T07:56:42Z</time>
					</trkpt>
					<trkpt lat="50.664860" lon="4.611480">
						<ele>127</ele>
						<time>2026-04-23T07:56:46Z</time>
					</trkpt>
					<trkpt lat="50.664900" lon="4.611400">
						<ele>127</ele>
						<time>2026-04-23T07:56:47Z</time>
					</trkpt>
					<trkpt lat="50.664960" lon="4.611340">
						<ele>127</ele>
						<time>2026-04-23T07:56:49Z</time>
					</trkpt>
					<trkpt lat="50.665450" lon="4.611340">
						<ele>125</ele>
						<time>2026-04-23T07:57:00Z</time>
					</trkpt>
					<trkpt lat="50.666140" lon="4.610670">
						<ele>122</ele>
						<time>2026-04-23T07:57:19Z</time>
					</trkpt>
					<trkpt lat="50.666550" lon="4.610680">
						<ele>121</ele>
						<time>2026-04-23T07:57:29Z</time>
					</trkpt>
					<trkpt lat="50.666910" lon="4.610660">
						<ele>119</ele>
						<time>2026-04-23T07:57:37Z</time>
					</trkpt>
					<trkpt lat="50.667290" lon="4.611080">
						<ele>118</ele>
						<time>2026-04-23T07:57:48Z</time>
					</trkpt>
					<trkpt lat="50.667530" lon="4.611170">
						<ele>116</ele>
						<time>2026-04-23T07:57:54Z</time>
					</trkpt>
					<trkpt lat="50.667760" lon="4.611360">
						<ele>116</ele>
						<time>2026-04-23T07:58:00Z</time>
					</trkpt>
					<trkpt lat="50.667880" lon="4.611520">
						<ele>115</ele>
						<time>2026-04-23T07:58:04Z</time>
					</trkpt>
					<trkpt lat="50.667970" lon="4.611500">
						<ele>115</ele>
						<time>2026-04-23T07:58:06Z</time>
					</trkpt>
					<trkpt lat="50.668030" lon="4.611380">
						<ele>115</ele>
						<time>2026-04-23T07:58:08Z</time>
					</trkpt>
					<trkpt lat="50.668140" lon="4.611380">
						<ele>114</ele>
						<time>2026-04-23T07:58:11Z</time>
					</trkpt>
					<trkpt lat="50.668220" lon="4.611340">
						<ele>114</ele>
						<time>2026-04-23T07:58:13Z</time>
					</trkpt>
					<trkpt lat="50.668460" lon="4.610890">
						<ele>113</ele>
						<time>2026-04-23T07:58:21Z</time>
					</trkpt>
					<trkpt lat="50.668460" lon="4.610770">
						<ele>112</ele>
						<time>2026-04-23T07:58:23Z</time>
					</trkpt>
					<trkpt lat="50.668220" lon="4.610350">
						<ele>112</ele>
						<time>2026-04-23T07:58:31Z</time>
					</trkpt>
					<trkpt lat="50.668100" lon="4.610160">
						<ele>111</ele>
						<time>2026-04-23T07:58:35Z</time>
					</trkpt>
					<trkpt lat="50.668050" lon="4.610070">
						<ele>111</ele>
						<time>2026-04-23T07:58:37Z</time>
					</trkpt>
					<trkpt lat="50.668300" lon="4.609810">
						<ele>109</ele>
						<time>2026-04-23T07:58:44Z</time>
					</trkpt>
					<trkpt lat="50.668350" lon="4.609830">
						<ele>109</ele>
						<time>2026-04-23T07:58:45Z</time>
					</trkpt>
					<trkpt lat="50.668690" lon="4.609540">
						<ele>108</ele>
						<time>2026-04-23T07:58:54Z</time>
					</trkpt>
					<trkpt lat="50.669070" lon="4.610510">
						<ele>109</ele>
						<time>2026-04-23T07:59:11Z</time>
					</trkpt>
					<trkpt lat="50.669120" lon="4.610570">
						<ele>109</ele>
						<time>2026-04-23T07:59:13Z</time>
					</trkpt>
					<trkpt lat="50.669200" lon="4.610650">
						<ele>110</ele>
						<time>2026-04-23T07:59:15Z</time>
					</trkpt>
					<trkpt lat="50.669720" lon="4.609640">
						<ele>113</ele>
						<time>2026-04-23T07:59:34Z</time>
					</trkpt>
					<trkpt lat="50.669800" lon="4.609510">
						<ele>115</ele>
						<time>2026-04-23T07:59:37Z</time>
					</trkpt>
					<trkpt lat="50.669830" lon="4.609370">
						<ele>115</ele>
						<time>2026-04-23T07:59:39Z</time>
					</trkpt>
					<trkpt lat="50.669970" lon="4.609110">
						<ele>118</ele>
						<time>2026-04-23T07:59:44Z</time>
					</trkpt>
					<trkpt lat="50.669720" lon="4.608690">
						<ele>117</ele>
						<time>2026-04-23T07:59:53Z</time>
					</trkpt>
					<trkpt lat="50.669640" lon="4.608130">
						<ele>119</ele>
						<time>2026-04-23T08:00:01Z</time>
					</trkpt>
					<trkpt lat="50.669590" lon="4.607740">
						<ele>120</ele>
						<time>2026-04-23T08:00:07Z</time>
					</trkpt>
					<trkpt lat="50.669610" lon="4.607390">
						<ele>122</ele>
						<time>2026-04-23T08:00:12Z</time>
					</trkpt>
					<trkpt lat="50.669720" lon="4.606980">
						<ele>124</ele>
						<time>2026-04-23T08:00:19Z</time>
					</trkpt>
					<trkpt lat="50.669750" lon="4.606940">
						<ele>124</ele>
						<time>2026-04-23T08:00:20Z</time>
					</trkpt>
					<trkpt lat="50.669880" lon="4.607080">
						<ele>125</ele>
						<time>2026-04-23T08:00:23Z</time>
					</trkpt>
					<trkpt lat="50.670010" lon="4.607190">
						<ele>126</ele>
						<time>2026-04-23T08:00:27Z</time>
					</trkpt>
					<trkpt lat="50.670130" lon="4.607370">
						<ele>126</ele>
						<time>2026-04-23T08:00:31Z</time>
					</trkpt>
					<trkpt lat="50.670160" lon="4.607460">
						<ele>126</ele>
						<time>2026-04-23T08:00:32Z</time>
					</trkpt>
					<trkpt lat="50.670170" lon="4.607580">
						<ele>126</ele>
						<time>2026-04-23T08:00:34Z</time>
					</trkpt>
					<trkpt lat="50.670170" lon="4.607720">
						<ele>125</ele>
						<time>2026-04-23T08:00:36Z</time>
					</trkpt>
					<trkpt lat="50.670190" lon="4.607790">
						<ele>125</ele>
						<time>2026-04-23T08:00:37Z</time>
					</trkpt>
					<trkpt lat="50.670250" lon="4.607820">
						<ele>125</ele>
						<time>2026-04-23T08:00:39Z</time>
					</trkpt>
					<trkpt lat="50.670330" lon="4.607810">
						<ele>126</ele>
						<time>2026-04-23T08:00:41Z</time>
					</trkpt>
					<trkpt lat="50.670480" lon="4.607810">
						<ele>127</ele>
						<time>2026-04-23T08:00:44Z</time>
					</trkpt>
					<trkpt lat="50.670490" lon="4.608180">
						<ele>126</ele>
						<time>2026-04-23T08:00:50Z</time>
					</trkpt>
					<trkpt lat="50.670490" lon="4.608350">
						<ele>125</ele>
						<time>2026-04-23T08:00:52Z</time>
					</trkpt>
					<trkpt lat="50.670550" lon="4.608470">
						<ele>125</ele>
						<time>2026-04-23T08:00:54Z</time>
					</trkpt>
					<trkpt lat="50.670690" lon="4.608640">
						<ele>126</ele>
						<time>2026-04-23T08:00:58Z</time>
					</trkpt>
					<trkpt lat="50.670880" lon="4.608910">
						<ele>126</ele>
						<time>2026-04-23T08:01:04Z</time>
					</trkpt>
					<trkpt lat="50.671030" lon="4.609120">
						<ele>126</ele>
						<time>2026-04-23T08:01:09Z</time>
					</trkpt>
					<trkpt lat="50.671250" lon="4.609420">
						<ele>126</ele>
						<time>2026-04-23T08:01:16Z</time>
					</trkpt>
					<trkpt lat="50.671600" lon="4.609870">
						<ele>126</ele>
						<time>2026-04-23T08:01:26Z</time>
					</trkpt>
					<trkpt lat="50.672230" lon="4.610700">
						<ele>125</ele>
						<time>2026-04-23T08:01:46Z</time>
					</trkpt>
					<trkpt lat="50.672380" lon="4.610890">
						<ele>125</ele>
						<time>2026-04-23T08:01:50Z</time>
					</trkpt>
					<trkpt lat="50.672550" lon="4.610560">
						<ele>126</ele>
						<time>2026-04-23T08:01:56Z</time>
					</trkpt>
					<trkpt lat="50.672660" lon="4.610390">
						<ele>127</ele>
						<time>2026-04-23T08:02:00Z</time>
					</trkpt>
					<trkpt lat="50.672730" lon="4.610440">
						<ele>126</ele>
						<time>2026-04-23T08:02:02Z</time>
					</trkpt>
					<trkpt lat="50.672810" lon="4.610520">
						<ele>126</ele>
						<time>2026-04-23T08:02:04Z</time>
					</trkpt>
					<trkpt lat="50.672870" lon="4.610570">
						<ele>126</ele>
						<time>2026-04-23T08:02:06Z</time>
					</trkpt>
					<trkpt lat="50.672980" lon="4.610640">
						<ele>126</ele>
						<time>2026-04-23T08:02:08Z</time>
					</trkpt>
					<trkpt lat="50.673430" lon="4.611110">
						<ele>126</ele>
						<time>2026-04-23T08:02:21Z</time>
					</trkpt>
					<trkpt lat="50.673560" lon="4.611350">
						<ele>127</ele>
						<time>2026-04-23T08:02:26Z</time>
					</trkpt>
					<trkpt lat="50.673740" lon="4.611120">
						<ele>127</ele>
						<time>2026-04-23T08:02:31Z</time>
					</trkpt>
					<trkpt lat="50.673890" lon="4.610940">
						<ele>127</ele>
						<time>2026-04-23T08:02:35Z</time>
					</trkpt>
					<trkpt lat="50.674040" lon="4.610850">
						<ele>128</ele>
						<time>2026-04-23T08:02:39Z</time>
					</trkpt>
					<trkpt lat="50.674040" lon="4.610740">
						<ele>128</ele>
						<time>2026-04-23T08:02:41Z</time>
					</trkpt>
					<trkpt lat="50.673920" lon="4.610260">
						<ele>127</ele>
						<time>2026-04-23T08:02:48Z</time>
					</trkpt>
					<trkpt lat="50.673850" lon="4.610090">
						<ele>127</ele>
						<time>2026-04-23T08:02:51Z</time>
					</trkpt>
					<trkpt lat="50.673790" lon="4.610200">
						<ele>127</ele>
						<time>2026-04-23T08:02:54Z</time>
					</trkpt>
					<trkpt lat="50.673670" lon="4.610380">
						<ele>127</ele>
						<time>2026-04-23T08:02:57Z</time>
					</trkpt>
					<trkpt lat="50.673550" lon="4.610570">
						<ele>127</ele>
						<time>2026-04-23T08:03:01Z</time>
					</trkpt>
					<trkpt lat="50.673250" lon="4.611120">
						<ele>126</ele>
						<time>2026-04-23T08:03:12Z</time>
					</trkpt>
					<trkpt lat="50.673160" lon="4.611340">
						<ele>125</ele>
						<time>2026-04-23T08:03:16Z</time>
					</trkpt>
					<trkpt lat="50.672910" lon="4.612130">
						<ele>123</ele>
						<time>2026-04-23T08:03:29Z</time>
					</trkpt>
					<trkpt lat="50.672730" lon="4.612980">
						<ele>121</ele>
						<time>2026-04-23T08:03:42Z</time>
					</trkpt>
					<trkpt lat="50.672630" lon="4.613410">
						<ele>121</ele>
						<time>2026-04-23T08:03:49Z</time>
					</trkpt>
					<trkpt lat="50.672560" lon="4.613650">
						<ele>121</ele>
						<time>2026-04-23T08:03:53Z</time>
					</trkpt>
					<trkpt lat="50.672520" lon="4.613780">
						<ele>121</ele>
						<time>2026-04-23T08:03:55Z</time>
					</trkpt>
					<trkpt lat="50.672740" lon="4.614260">
						<ele>121</ele>
						<time>2026-04-23T08:04:04Z</time>
					</trkpt>
					<trkpt lat="50.672680" lon="4.614290">
						<ele>121</ele>
						<time>2026-04-23T08:04:05Z</time>
					</trkpt>
					<trkpt lat="50.672550" lon="4.614250">
						<ele>121</ele>
						<time>2026-04-23T08:04:09Z</time>
					</trkpt>
					<trkpt lat="50.672390" lon="4.614180">
						<ele>121</ele>
						<time>2026-04-23T08:04:12Z</time>
					</trkpt>
					<trkpt lat="50.672190" lon="4.614030">
						<ele>121</ele>
						<time>2026-04-23T08:04:18Z</time>
					</trkpt>
					<trkpt lat="50.672120" lon="4.613990">
						<ele>121</ele>
						<time>2026-04-23T08:04:19Z</time>
					</trkpt>
					<trkpt lat="50.672040" lon="4.613970">
						<ele>121</ele>
						<time>2026-04-23T08:04:21Z</time>
					</trkpt>
					<trkpt lat="50.671980" lon="4.613940">
						<ele>121</ele>
						<time>2026-04-23T08:04:23Z</time>
					</trkpt>
					<trkpt lat="50.671900" lon="4.613820">
						<ele>120</ele>
						<time>2026-04-23T08:04:25Z</time>
					</trkpt>
					<trkpt lat="50.671790" lon="4.613690">
						<ele>119</ele>
						<time>2026-04-23T08:04:28Z</time>
					</trkpt>
					<trkpt lat="50.671700" lon="4.613640">
						<ele>119</ele>
						<time>2026-04-23T08:04:31Z</time>
					</trkpt>
					<trkpt lat="50.671610" lon="4.613640">
						<ele>119</ele>
						<time>2026-04-23T08:04:33Z</time>
					</trkpt>
					<trkpt lat="50.671490" lon="4.613520">
						<ele>118</ele>
						<time>2026-04-23T08:04:36Z</time>
					</trkpt>
					<trkpt lat="50.671430" lon="4.613420">
						<ele>118</ele>
						<time>2026-04-23T08:04:38Z</time>
					</trkpt>
					<trkpt lat="50.671280" lon="4.613370">
						<ele>117</ele>
						<time>2026-04-23T08:04:42Z</time>
					</trkpt>
					<trkpt lat="50.671160" lon="4.613330">
						<ele>117</ele>
						<time>2026-04-23T08:04:45Z</time>
					</trkpt>
					<trkpt lat="50.671060" lon="4.613420">
						<ele>118</ele>
						<time>2026-04-23T08:04:47Z</time>
					</trkpt>
					<trkpt lat="50.670770" lon="4.613910">
						<ele>120</ele>
						<time>2026-04-23T08:04:57Z</time>
					</trkpt>
					<trkpt lat="50.670700" lon="4.613840">
						<ele>119</ele>
						<time>2026-04-23T08:04:59Z</time>
					</trkpt>
					<trkpt lat="50.670630" lon="4.613780">
						<ele>118</ele>
						<time>2026-04-23T08:05:01Z</time>
					</trkpt>
					<trkpt lat="50.670550" lon="4.613740">
						<ele>117</ele>
						<time>2026-04-23T08:05:03Z</time>
					</trkpt>
					<trkpt lat="50.670490" lon="4.613740">
						<ele>117</ele>
						<time>2026-04-23T08:05:04Z</time>
					</trkpt>
					<trkpt lat="50.670460" lon="4.613750">
						<ele>116</ele>
						<time>2026-04-23T08:05:05Z</time>
					</trkpt>
					<trkpt lat="50.670390" lon="4.613770">
						<ele>116</ele>
						<time>2026-04-23T08:05:07Z</time>
					</trkpt>
					<trkpt lat="50.670330" lon="4.613750">
						<ele>115</ele>
						<time>2026-04-23T08:05:08Z</time>
					</trkpt>
					<trkpt lat="50.670260" lon="4.613730">
						<ele>115</ele>
						<time>2026-04-23T08:05:10Z</time>
					</trkpt>
					<trkpt lat="50.670220" lon="4.613710">
						<ele>114</ele>
						<time>2026-04-23T08:05:11Z</time>
					</trkpt>
					<trkpt lat="50.670060" lon="4.613720">
						<ele>113</ele>
						<time>2026-04-23T08:05:15Z</time>
					</trkpt>
					<trkpt lat="50.669800" lon="4.613720">
						<ele>113</ele>
						<time>2026-04-23T08:05:21Z</time>
					</trkpt>
					<trkpt lat="50.669710" lon="4.613730">
						<ele>114</ele>
						<time>2026-04-23T08:05:23Z</time>
					</trkpt>
					<trkpt lat="50.669700" lon="4.613820">
						<ele>114</ele>
						<time>2026-04-23T08:05:24Z</time>
					</trkpt>
					<trkpt lat="50.669690" lon="4.613930">
						<ele>115</ele>
						<time>2026-04-23T08:05:26Z</time>
					</trkpt>
					<trkpt lat="50.669610" lon="4.613930">
						<ele>115</ele>
						<time>2026-04-23T08:05:28Z</time>
					</trkpt>
					<trkpt lat="50.669530" lon="4.613960">
						<ele>115</ele>
						<time>2026-04-23T08:05:30Z</time>
					</trkpt>
					<trkpt lat="50.669460" lon="4.613960">
						<ele>116</ele>
						<time>2026-04-23T08:05:31Z</time>
					</trkpt>
					<trkpt lat="50.669370" lon="4.613960">
						<ele>116</ele>
						<time>2026-04-23T08:05:33Z</time>
					</trkpt>
					<trkpt lat="50.669160" lon="4.614000">
						<ele>117</ele>
						<time>2026-04-23T08:05:38Z</time>
					</trkpt>
					<trkpt lat="50.669110" lon="4.614000">
						<ele>117</ele>
						<time>2026-04-23T08:05:39Z</time>
					</trkpt>
					<trkpt lat="50.669120" lon="4.614200">
						<ele>117</ele>
						<time>2026-04-23T08:05:42Z</time>
					</trkpt>
					<trkpt lat="50.669130" lon="4.614370">
						<ele>117</ele>
						<time>2026-04-23T08:05:45Z</time>
					</trkpt>
					<trkpt lat="50.669130" lon="4.614570">
						<ele>118</ele>
						<time>2026-04-23T08:05:48Z</time>
					</trkpt>
					<trkpt lat="50.668990" lon="4.614600">
						<ele>118</ele>
						<time>2026-04-23T08:05:51Z</time>
					</trkpt>
					<trkpt lat="50.668960" lon="4.614690">
						<ele>118</ele>
						<time>2026-04-23T08:05:53Z</time>
					</trkpt>
					<trkpt lat="50.668910" lon="4.614840">
						<ele>119</ele>
						<time>2026-04-23T08:05:55Z</time>
					</trkpt>
					<trkpt lat="50.668850" lon="4.615000">
						<ele>119</ele>
						<time>2026-04-23T08:05:58Z</time>
					</trkpt>
					<trkpt lat="50.668790" lon="4.615130">
						<ele>119</ele>
						<time>2026-04-23T08:06:00Z</time>
					</trkpt>
					<trkpt lat="50.668730" lon="4.615270">
						<ele>120</ele>
						<time>2026-04-23T08:06:03Z</time>
					</trkpt>
					<trkpt lat="50.668670" lon="4.615390">
						<ele>120</ele>
						<time>2026-04-23T08:06:05Z</time>
					</trkpt>
					<trkpt lat="50.668610" lon="4.615320">
						<ele>120</ele>
						<time>2026-04-23T08:06:07Z</time>
					</trkpt>
					<trkpt lat="50.668510" lon="4.615180">
						<ele>119</ele>
						<time>2026-04-23T08:06:10Z</time>
					</trkpt>
					<trkpt lat="50.668430" lon="4.615070">
						<ele>119</ele>
						<time>2026-04-23T08:06:12Z</time>
					</trkpt>
					<trkpt lat="50.668340" lon="4.614980">
						<ele>119</ele>
						<time>2026-04-23T08:06:15Z</time>
					</trkpt>
					<trkpt lat="50.668210" lon="4.614850">
						<ele>119</ele>
						<time>2026-04-23T08:06:18Z</time>
					</trkpt>
					<trkpt lat="50.668010" lon="4.614690">
						<ele>119</ele>
						<time>2026-04-23T08:06:24Z</time>
					</trkpt>
					<trkpt lat="50.667930" lon="4.614680">
						<ele>119</ele>
						<time>2026-04-23T08:06:26Z</time>
					</trkpt>
					<trkpt lat="50.667880" lon="4.614730">
						<ele>119</ele>
						<time>2026-04-23T08:06:27Z</time>
					</trkpt>
					<trkpt lat="50.667840" lon="4.614800">
						<ele>120</ele>
						<time>2026-04-23T08:06:28Z</time>
					</trkpt>
					<trkpt lat="50.667820" lon="4.614860">
						<ele>120</ele>
						<time>2026-04-23T08:06:29Z</time>
					</trkpt>
					<trkpt lat="50.667750" lon="4.614970">
						<ele>121</ele>
						<time>2026-04-23T08:06:32Z</time>
					</trkpt>
					<trkpt lat="50.667680" lon="4.615130">
						<ele>122</ele>
						<time>2026-04-23T08:06:35Z</time>
					</trkpt>
					<trkpt lat="50.667620" lon="4.615300">
						<ele>122</ele>
						<time>2026-04-23T08:06:37Z</time>
					</trkpt>
					<trkpt lat="50.667560" lon="4.615480">
						<ele>123</ele>
						<time>2026-04-23T08:06:40Z</time>
					</trkpt>
					<trkpt lat="50.667510" lon="4.615620">
						<ele>123</ele>
						<time>2026-04-23T08:06:43Z</time>
					</trkpt>
					<trkpt lat="50.667450" lon="4.615780">
						<ele>124</ele>
						<time>2026-04-23T08:06:46Z</time>
					</trkpt>
					<trkpt lat="50.667420" lon="4.615850">
						<ele>125</ele>
						<time>2026-04-23T08:06:47Z</time>
					</trkpt>
					<trkpt lat="50.667650" lon="4.616080">
						<ele>125</ele>
						<time>2026-04-23T08:06:53Z</time>
					</trkpt>
					<trkpt lat="50.667770" lon="4.616230">
						<ele>125</ele>
						<time>2026-04-23T08:06:57Z</time>
					</trkpt>
					<trkpt lat="50.667880" lon="4.616390">
						<ele>126</ele>
						<time>2026-04-23T08:07:00Z</time>
					</trkpt>
					<trkpt lat="50.667960" lon="4.616540">
						<ele>126</ele>
						<time>2026-04-23T08:07:03Z</time>
					</trkpt>
					<trkpt lat="50.667950" lon="4.616570">
						<ele>126</ele>
						<time>2026-04-23T08:07:04Z</time>
					</trkpt>
					<trkpt lat="50.667940" lon="4.616620">
						<ele>127</ele>
						<time>2026-04-23T08:07:04Z</time>
					</trkpt>
					<trkpt lat="50.667920" lon="4.616660">
						<ele>127</ele>
						<time>2026-04-23T08:07:05Z</time>
					</trkpt>
					<trkpt lat="50.667880" lon="4.616710">
						<ele>127</ele>
						<time>2026-04-23T08:07:06Z</time>
					</trkpt>
					<trkpt lat="50.667840" lon="4.616770">
						<ele>128</ele>
						<time>2026-04-23T08:07:08Z</time>
					</trkpt>
					<trkpt lat="50.667780" lon="4.616850">
						<ele>128</ele>
						<time>2026-04-23T08:07:09Z</time>
					</trkpt>
					<trkpt lat="50.667730" lon="4.616890">
						<ele>129</ele>
						<time>2026-04-23T08:07:11Z</time>
					</trkpt>
					<trkpt lat="50.667630" lon="4.616920">
						<ele>129</ele>
						<time>2026-04-23T08:07:13Z</time>
					</trkpt>
					<trkpt lat="50.667550" lon="4.616920">
						<ele>130</ele>
						<time>2026-04-23T08:07:15Z</time>
					</trkpt>
					<trkpt lat="50.667450" lon="4.616900">
						<ele>130</ele>
						<time>2026-04-23T08:07:17Z</time>
					</trkpt>
					<trkpt lat="50.667350" lon="4.616880">
						<ele>130</ele>
						<time>2026-04-23T08:07:20Z</time>
					</trkpt>
					<trkpt lat="50.667250" lon="4.616870">
						<ele>131</ele>
						<time>2026-04-23T08:07:22Z</time>
					</trkpt>
					<trkpt lat="50.667150" lon="4.616930">
						<ele>131</ele>
						<time>2026-04-23T08:07:25Z</time>
					</trkpt>
					<trkpt lat="50.667070" lon="4.617030">
						<ele>132</ele>
						<time>2026-04-23T08:07:27Z</time>
					</trkpt>
					<trkpt lat="50.667010" lon="4.617130">
						<ele>133</ele>
						<time>2026-04-23T08:07:29Z</time>
					</trkpt>
					<trkpt lat="50.666950" lon="4.617270">
						<ele>134</ele>
						<time>2026-04-23T08:07:32Z</time>
					</trkpt>
					<trkpt lat="50.666900" lon="4.617430">
						<ele>135</ele>
						<time>2026-04-23T08:07:34Z</time>
					</trkpt>
					<trkpt lat="50.666890" lon="4.617590">
						<ele>135</ele>
						<time>2026-04-23T08:07:37Z</time>
					</trkpt>
					<trkpt lat="50.666880" lon="4.617730">
						<ele>136</ele>
						<time>2026-04-23T08:07:39Z</time>
					</trkpt>
					<trkpt lat="50.666890" lon="4.617870">
						<ele>136</ele>
						<time>2026-04-23T08:07:41Z</time>
					</trkpt>
					<trkpt lat="50.666900" lon="4.617990">
						<ele>136</ele>
						<time>2026-04-23T08:07:43Z</time>
					</trkpt>
					<trkpt lat="50.666910" lon="4.618060">
						<ele>136</ele>
						<time>2026-04-23T08:07:44Z</time>
					</trkpt>
					<trkpt lat="50.666720" lon="4.618080">
						<ele>137</ele>
						<time>2026-04-23T08:07:48Z</time>
					</trkpt>
					<trkpt lat="50.666630" lon="4.618120">
						<ele>138</ele>
						<time>2026-04-23T08:07:50Z</time>
					</trkpt>
					<trkpt lat="50.666400" lon="4.618290">
						<ele>139</ele>
						<time>2026-04-23T08:07:56Z</time>
					</trkpt>
					<trkpt lat="50.666090" lon="4.618520">
						<ele>140</ele>
						<time>2026-04-23T08:08:04Z</time>
					</trkpt>
					</trkseg>
				</trk>
			</gpx>